{
  "type": "FeatureCollection",
  "features": [
    {
      "type": "Feature",
      "properties": {
        "norad_id": 66969,
        "name": "STARLINK-36149",
        "group": "last-30-days",
        "lat": 42.70734779761656,
        "lon": -139.12894600879122,
        "alt_km": 314.0307133265751,
        "timestamp": "2025-12-19T22:41:51.098905+00:00",
        "meta_object_name": "STARLINK-36149",
        "meta_object_id": "2025-288L",
        "meta_epoch": "2025-12-19T16:14:26.539584",
        "meta_mean_motion": 15.8367777,
        "meta_eccentricity": 0.0002038,
        "meta_inclination": 43.0013,
        "meta_ra_of_asc_node": 124.6172,
        "meta_arg_of_pericenter": 225.9465,
        "meta_mean_anomaly": 134.1239,
        "meta_ephemeris_type": 0,
        "meta_classification_type": "U",
        "meta_norad_cat_id": 66969,
        "meta_element_set_no": 999,
        "meta_rev_at_epoch": 294,
        "meta_bstar": 0.000358,
        "meta_mean_motion_dot": 0.00081756,
        "meta_mean_motion_ddot": 0,
        "tle_line1": "1 66969U 25288L   25353.67669606  .00081756  00000+0  35800-3 0  9990",
        "tle_line2": "2 66969  43.0013 124.6172 0002038 225.9465 134.1239 15.83677770  2947"
      },
      "geometry": {
        "type": "Point",
        "coordinates": [
          -139.12894600879122,
          42.70734779761656
        ]
      }
    },
    {
      "type": "Feature",
      "properties": {
        "norad_id": 66970,
        "name": "STARLINK-35703",
        "group": "last-30-days",
        "lat": 41.220010006018555,
        "lon": -127.13032858428798,
        "alt_km": 315.2719991861786,
        "timestamp": "2025-12-19T22:41:51.098915+00:00",
        "meta_object_name": "STARLINK-35703",
        "meta_object_id": "2025-288M",
        "meta_epoch": "2025-12-19T16:12:06.913728",
        "meta_mean_motion": 15.8352226,
        "meta_eccentricity": 0.0001878,
        "meta_inclination": 43.0009,
        "meta_ra_of_asc_node": 124.603,
        "meta_arg_of_pericenter": 275.4876,
        "meta_mean_anomaly": 84.5782,
        "meta_ephemeris_type": 0,
        "meta_classification_type": "U",
        "meta_norad_cat_id": 66970,
        "meta_element_set_no": 999,
        "meta_rev_at_epoch": 294,
        "meta_bstar": -0.00033389,
        "meta_mean_motion_dot": -0.00075382,
        "meta_mean_motion_ddot": 0,
        "tle_line1": "1 66970U 25288M   25353.67508002 -.00075382  00000+0 -33389-3 0  9994",
        "tle_line2": "2 66970  43.0009 124.6030 0001878 275.4876  84.5782 15.83522260  2948"
      },
      "geometry": {
        "type": "Point",
        "coordinates": [
          -127.13032858428798,
          41.220010006018555
        ]
      }
    },
    {
      "type": "Feature",
      "properties": {
        "norad_id": 66971,
        "name": "STARLINK-35678",
        "group": "last-30-days",
        "lat": 42.81074523903962,
        "lon": -153.25255105865068,
        "alt_km": 316.1705906239695,
        "timestamp": "2025-12-19T22:41:51.098925+00:00",
        "meta_object_name": "STARLINK-35678",
        "meta_object_id": "2025-288N",
        "meta_epoch": "2025-12-19T14:46:07.822848",
        "meta_mean_motion": 15.83510193,
        "meta_eccentricity": 0.0002123,
        "meta_inclination": 43.0016,
        "meta_ra_of_asc_node": 125.018,
        "meta_arg_of_pericenter": 252.044,
        "meta_mean_anomaly": 108.0201,
        "meta_ephemeris_type": 0,
        "meta_classification_type": "U",
        "meta_norad_cat_id": 66971,
        "meta_element_set_no": 999,
        "meta_rev_at_epoch": 293,
        "meta_bstar": -0.0025108,
        "meta_mean_motion_dot": -0.00534508,
        "meta_mean_motion_ddot": 0,
        "tle_line1": "1 66971U 25288N   25353.61536832 -.00534508  00000+0 -25108-2 0  9990",
        "tle_line2": "2 66971  43.0016 125.0180 0002123 252.0440 108.0201 15.83510193  2939"
      },
      "geometry": {
        "type": "Point",
        "coordinates": [
          -153.25255105865068,
          42.81074523903962
        ]
      }
    },
    {
      "type": "Feature",
      "properties": {
        "norad_id": 66972,
        "name": "STARLINK-34846",
        "group": "last-30-days",
        "lat": 42.95532319208883,
        "lon": -149.4258866787264,
        "alt_km": 314.90800880444203,
        "timestamp": "2025-12-19T22:41:51.098935+00:00",
        "meta_object_name": "STARLINK-34846",
        "meta_object_id": "2025-288P",
        "meta_epoch": "2025-12-19T17:47:08.193984",
        "meta_mean_motion": 15.83519621,
        "meta_eccentricity": 0.000217,
        "meta_inclination": 43.0016,
        "meta_ra_of_asc_node": 124.2401,
        "meta_arg_of_pericenter": 288.4953,
        "meta_mean_anomaly": 71.5683,
        "meta_ephemeris_type": 0,
        "meta_classification_type": "U",
        "meta_norad_cat_id": 66972,
        "meta_element_set_no": 999,
        "meta_rev_at_epoch": 295,
        "meta_bstar": 0.0003408,
        "meta_mean_motion_dot": 0.00077176,
        "meta_mean_motion_ddot": 0,
        "tle_line1": "1 66972U 25288P   25353.74106706  .00077176  00000+0  34080-3 0  9999",
        "tle_line2": "2 66972  43.0016 124.2401 0002170 288.4953  71.5683 15.83519621  2956"
      },
      "geometry": {
        "type": "Point",
        "coordinates": [
          -149.4258866787264,
          42.95532319208883
        ]
      }
    },
    {
      "type": "Feature",
      "properties": {
        "norad_id": 66973,
        "name": "STARLINK-35778",
        "group": "last-30-days",
        "lat": 42.97535561173495,
        "lon": -145.96081678546875,
        "alt_km": 314.69783691317025,
        "timestamp": "2025-12-19T22:41:51.098947+00:00",
        "meta_object_name": "STARLINK-35778",
        "meta_object_id": "2025-288Q",
        "meta_epoch": "2025-12-19T16:15:41.192640",
        "meta_mean_motion": 15.83603582,
        "meta_eccentricity": 0.0001879,
        "meta_inclination": 43.0013,
        "meta_ra_of_asc_node": 124.6242,
        "meta_arg_of_pericenter": 279.2381,
        "meta_mean_anomaly": 80.8279,
        "meta_ephemeris_type": 0,
        "meta_classification_type": "U",
        "meta_norad_cat_id": 66973,
        "meta_element_set_no": 999,
        "meta_rev_at_epoch": 294,
        "meta_bstar": -0.00014959,
        "meta_mean_motion_dot": -0.00034364,
        "meta_mean_motion_ddot": 0,
        "tle_line1": "1 66973U 25288Q   25353.67756010 -.00034364  00000+0 -14959-3 0  9998",
        "tle_line2": "2 66973  43.0013 124.6242 0001879 279.2381  80.8279 15.83603582  2942"
      },
      "geometry": {
        "type": "Point",
        "coordinates": [
          -145.96081678546875,
          42.97535561173495
        ]
      }
    },
    {
      "type": "Feature",
      "properties": {
        "norad_id": 66974,
        "name": "STARLINK-35780",
        "group": "last-30-days",
        "lat": 42.92261315866926,
        "lon": -143.3769212254735,
        "alt_km": 317.00377324177225,
        "timestamp": "2025-12-19T22:41:51.098957+00:00",
        "meta_object_name": "STARLINK-35780",
        "meta_object_id": "2025-288R",
        "meta_epoch": "2025-12-19T14:44:17.541888",
        "meta_mean_motion": 15.8345028,
        "meta_eccentricity": 0.0004312,
        "meta_inclination": 43.0017,
        "meta_ra_of_asc_node": 125.0086,
        "meta_arg_of_pericenter": 314.1544,
        "meta_mean_anomaly": 45.8973,
        "meta_ephemeris_type": 0,
        "meta_classification_type": "U",
        "meta_norad_cat_id": 66974,
        "meta_element_set_no": 999,
        "meta_rev_at_epoch": 293,
        "meta_bstar": -0.0025482,
        "meta_mean_motion_dot": -0.00541042,
        "meta_mean_motion_ddot": 0,
        "tle_line1": "1 66974U 25288R   25353.61409192 -.00541042  00000+0 -25482-2 0  9997",
        "tle_line2": "2 66974  43.0017 125.0086 0004312 314.1544  45.8973 15.83450280  2939"
      },
      "geometry": {
        "type": "Point",
        "coordinates": [
          -143.3769212254735,
          42.92261315866926
        ]
      }
    },
    {
      "type": "Feature",
      "properties": {
        "norad_id": 66975,
        "name": "STARLINK-35777",
        "group": "last-30-days",
        "lat": 42.4939620155775,
        "lon": -136.4957830238905,
        "alt_km": 316.60626524659074,
        "timestamp": "2025-12-19T22:41:51.098967+00:00",
        "meta_object_name": "STARLINK-35777",
        "meta_object_id": "2025-288S",
        "meta_epoch": "2025-12-19T13:12:15.086304",
        "meta_mean_motion": 15.83731621,
        "meta_eccentricity": 0.0003315,
        "meta_inclination": 43.0015,
        "meta_ra_of_asc_node": 125.3888,
        "meta_arg_of_pericenter": 266.6786,
        "meta_mean_anomaly": 93.3707,
        "meta_ephemeris_type": 0,
        "meta_classification_type": "U",
        "meta_norad_cat_id": 66975,
        "meta_element_set_no": 999,
        "meta_rev_at_epoch": 292,
        "meta_bstar": -0.0024503,
        "meta_mean_motion_dot": -0.00527842,
        "meta_mean_motion_ddot": 0,
        "tle_line1": "1 66975U 25288S   25353.55017461 -.00527842  00000+0 -24503-2 0  9990",
        "tle_line2": "2 66975  43.0015 125.3888 0003315 266.6786  93.3707 15.83731621  2925"
      },
      "geometry": {
        "type": "Point",
        "coordinates": [
          -136.4957830238905,
          42.4939620155775
        ]
      }
    }
  ]
}